OBJECT_NAME,OBJECT_ID,EPOCH,MEAN_MOTION,ECCENTRICITY,INCLINATION,RA_OF_ASC_NODE,ARG_OF_PERICENTER,MEAN_ANOMALY,EPHEMERIS_TYPE,CLASSIFICATION_TYPE,NORAD_CAT_ID,ELEMENT_SET_NO,REV_AT_EPOCH,BSTAR,MEAN_MOTION_DOT,MEAN_MOTION_DDOT
LEMUR-2-ROUNDTRIPPER,2025-009DG,2026-07-13T18:32:27.777408,15.04217795,.0004411,97.7253,277.4183,66.7555,293.4134,0,U,62711,999,8162,.375E-3,.5151E-4,0
LEMUR-2-MYNAMEISJEFF,2025-009DH,2026-07-13T18:30:16.312896,15.04208990,.0003962,97.7302,277.8140,100.2655,259.9017,0,U,62712,999,8162,.36287E-3,.4981E-4,0
LEMUR-2-LEIA-PHILIP,2025-052AN,2026-07-13T15:59:45.977568,14.97390448,.0005085,97.6810,86.1686,122.7707,237.4005,0,U,63246,999,7263,.41192E-4,.421E-5,0
LEMUR-2-LIA-MARTIN,2025-052AQ,2026-07-13T15:52:51.573792,14.98023427,.0005392,97.6874,86.6800,93.6022,266.5818,0,U,63248,999,7264,.23014E-3,.2661E-4,0
LEMUR-2-DELOITTE-1,2025-052BB,2026-07-13T17:00:32.955264,14.97775097,.0002497,97.6883,87.0566,66.3822,293.7662,0,U,63259,999,7266,.19939E-3,.2283E-4,0
LEMUR-2-EMERSONROSE,2025-052BD,2026-07-13T15:47:01.062816,14.99282406,.0002767,97.6886,87.6160,63.7005,296.4502,0,U,63261,999,7270,.24124E-3,.2886E-4,0
LEMUR-2-MARACHE-FRAN,2025-052BE,2026-07-13T16:21:13.843008,15.00310104,.0005034,97.6842,88.0061,258.6633,101.4026,0,U,63262,999,7273,.15702E-3,.1909E-4,0
LEMUR-2-THEFALCONER,2025-052BG,2026-07-13T16:07:52.743072,14.97560337,.0000339,97.6839,86.6131,334.6761,25.4445,0,U,63264,999,7265,.1068E-3,.1189E-4,0
LEMUR-2-UNTITLED-SC,2025-061A,2026-07-13T20:43:49.444608,15.13641613,.00191,97.5650,170.0360,167.5563,192.6144,0,U,63351,999,7162,.11181E-3,.1951E-4,0
LEMUR-2-ESPERANZA,2025-061B,2026-07-13T20:08:26.421216,15.13747436,.0018709,97.5656,170.1114,166.7847,193.3878,0,U,63352,999,7162,.94768E-4,.1648E-4,0
LEMUR-2-KREMPEL-BRO2,2025-061C,2026-07-13T20:36:18.535104,15.14174108,.0019847,97.5703,170.6979,159.7337,200.4687,0,U,63353,999,7164,.1061E-3,.1876E-4,0
LEMUR-2-THERMORAPTOR,2025-061D,2026-07-13T20:08:25.038816,15.14256497,.0019602,97.5708,170.7595,158.6334,201.5720,0,U,63354,999,7164,.10283E-3,.1821E-4,0
LEMUR-2-NEUROSPICY,2025-061E,2026-07-13T20:59:49.236288,15.14375512,.0017345,97.5636,170.4007,161.3310,198.8561,0,U,63355,999,7165,.12908E-3,.2309E-4,0
LEMUR-2-TILLINFINITY,2025-061F,2026-07-13T20:00:40.731264,15.14958907,.0018934,97.5622,170.6690,150.2850,209.9462,0,U,63356,999,7167,.11113E-3,.2013E-4,0
LEMUR-2-KREMPEL-BRO1,2025-061G,2026-07-13T21:02:30.411168,15.14766529,.0019554,97.5622,170.6202,151.5684,208.6619,0,U,63357,999,7167,.12655E-3,.229E-4,0
LEMUR-2-LANGER2SPACE,2025-061H,2026-07-13T20:13:14.430432,15.14459889,.0017299,97.5628,170.3895,159.7511,200.4411,0,U,63358,999,7165,.10013E-3,.178E-4,0
LEMUR-2-BALTO,2025-052BH,2026-07-13T15:58:47.025120,15.00356095,.0005179,97.6932,87.9765,333.9696,26.1266,0,U,63395,999,7273,.22806E-3,.2803E-4,0
LEMUR-2-KRISH,2025-135AK,2026-07-13T19:45:12.256128,14.96443451,.0001441,97.7772,309.5216,95.6216,264.5169,0,U,64561,999,5790,.18963E-3,.2093E-4,0
LEMUR-2-HUBBLE-4,2025-135AP,2026-07-13T20:50:27.752064,14.93683552,.0002566,97.7718,308.4649,165.5181,194.6112,0,U,64565,999,5785,.10517E-3,.1055E-4,0
LEMUR-2-SEJONG-2,2025-135BL,2026-07-13T20:16:06.239424,14.96905403,.0003877,97.7706,309.6887,225.2170,134.8736,0,U,64586,999,5793,.18865E-3,.2107E-4,0
LEMUR-2-HUBBLE-5,2025-135BT,2026-07-13T06:35:58.564032,14.94210500,.0004223,97.7739,308.5451,243.2055,116.8733,0,U,64840,999,5780,.10103E-3,.1025E-4,0
LEMUR-2-KARENDARRELL,2025-135BU,2026-07-13T20:42:20.142432,15.00488219,.0012325,97.7713,311.0352,108.8027,251.4535,0,U,64841,999,5801,.35249E-3,.4386E-4,0
LEMUR-2-LUCILLE-ROSE,2025-135BV,2026-07-13T13:39:58.444416,15.00477141,.0014681,97.7706,310.7769,193.9631,166.1189,0,U,65403,999,5259,.28939E-3,.3591E-4,0
LEMUR-2-AFFIE-WAUWIE,2025-248C,2026-07-13T09:47:59.059680,15.28200773,.0008714,45.3884,332.8093,240.1921,119.8103,0,U,66295,999,3860,.46625316E-3,.12783E-3,0
OTTER SDM,2025-276N,2026-07-13T04:31:08.425344,15.20042584,.0004241,97.4209,267.2358,263.4653,96.6100,0,U,66678,999,3436,.16462E-3,.3482E-4,0
LEMUR-2-STAS-GORBUK,2025-276W,2026-07-13T17:39:48.209760,15.19649762,.0003482,97.4242,267.8265,255.8012,104.2836,0,U,66686,999,3444,.15184E-3,.3169E-4,0
LEMUR-2-TEODOR,2025-276DG,2026-07-13T18:09:09.552384,15.21327647,.0002275,97.4148,268.1165,88.6540,271.4956,0,U,66768,999,3448,.15498E-3,.34E-4,0
LEMUR-2-LAILA,2025-276DQ,2026-07-13T17:25:58.785312,15.21553753,.0002896,97.4170,268.2249,96.3598,263.7967,0,U,66776,999,3448,.14347E-3,.3164E-4,0
LEMUR-2-CELIJO-SB-PK,2025-276DW,2026-07-13T17:13:17.935680,15.00275969,.0007033,97.5201,264.6196,68.0362,292.1608,0,U,66781,999,2660,.23899E-3,.2937E-4,0
LEMUR-2-FINNIAN,2025-276DX,2026-07-13T18:07:00.247008,15.00606139,.0008117,97.5311,264.9238,7.7708,352.3641,0,U,66782,999,2398,.1323E-3,.1614E-4,0
