LEMUR-2-ROUNDTRIPPER    
1 62711U 25009DG  26194.77254372  .00005151  00000+0  37500-3 0  9991
2 62711  97.7253 277.4183 0004411  66.7555 293.4134 15.04217795 81622
LEMUR-2-MYNAMEISJEFF    
1 62712U 25009DH  26194.77102214  .00004981  00000+0  36287-3 0  9990
2 62712  97.7302 277.8140 0003962 100.2655 259.9017 15.04208990 81624
LEMUR-2-LEIA-PHILIP     
1 63246U 25052AN  26194.66650437  .00000421  00000+0  41192-4 0  9991
2 63246  97.6810  86.1686 0005085 122.7707 237.4005 14.97390448 72631
LEMUR-2-LIA-MARTIN      
1 63248U 25052AQ  26194.66170803  .00002661  00000+0  23014-3 0  9997
2 63248  97.6874  86.6800 0005392  93.6022 266.5818 14.98023427 72640
LEMUR-2-DELOITTE-1      
1 63259U 25052BB  26194.70871476  .00002283  00000+0  19939-3 0  9999
2 63259  97.6883  87.0566 0002497  66.3822 293.7662 14.97775097 72661
LEMUR-2-EMERSONROSE     
1 63261U 25052BD  26194.65765119  .00002886  00000+0  24124-3 0  9993
2 63261  97.6886  87.6160 0002767  63.7005 296.4502 14.99282406 72704
LEMUR-2-MARACHE-FRAN    
1 63262U 25052BE  26194.68141022  .00001909  00000+0  15702-3 0  9995
2 63262  97.6842  88.0061 0005034 258.6633 101.4026 15.00310104 72733
LEMUR-2-THEFALCONER     
1 63264U 25052BG  26194.67213823  .00001189  00000+0  10680-3 0  9995
2 63264  97.6839  86.6131 0000339 334.6761  25.4445 14.97560337 72654
LEMUR-2-UNTITLED-SC     
1 63351U 25061A   26194.86376672  .00001951  00000+0  11181-3 0  9999
2 63351  97.5650 170.0360 0019100 167.5563 192.6144 15.13641613 71627
LEMUR-2-ESPERANZA       
1 63352U 25061B   26194.83919469  .00001648  00000+0  94768-4 0  9990
2 63352  97.5656 170.1114 0018709 166.7847 193.3878 15.13747436 71624
LEMUR-2-KREMPEL-BRO2    
1 63353U 25061C   26194.85854786  .00001876  00000+0  10610-3 0  9999
2 63353  97.5703 170.6979 0019847 159.7337 200.4687 15.14174108 71643
LEMUR-2-THERMORAPTOR    
1 63354U 25061D   26194.83917869  .00001821  00000+0  10283-3 0  9996
2 63354  97.5708 170.7595 0019602 158.6334 201.5720 15.14256497 71640
LEMUR-2-NEUROSPICY      
1 63355U 25061E   26194.87487542  .00002309  00000+0  12908-3 0  9999
2 63355  97.5636 170.4007 0017345 161.3310 198.8561 15.14375512 71655
LEMUR-2-TILLINFINITY    
1 63356U 25061F   26194.83380476  .00002013  00000+0  11113-3 0  9993
2 63356  97.5622 170.6690 0018934 150.2850 209.9462 15.14958907 71673
LEMUR-2-KREMPEL-BRO1    
1 63357U 25061G   26194.87674087  .00002290  00000+0  12655-3 0  9991
2 63357  97.5622 170.6202 0019554 151.5684 208.6619 15.14766529 71678
LEMUR-2-LANGER2SPACE    
1 63358U 25061H   26194.84252813  .00001780  00000+0  10013-3 0  9997
2 63358  97.5628 170.3895 0017299 159.7511 200.4411 15.14459889 71659
LEMUR-2-BALTO           
1 63395U 25052BH  26194.66582205  .00002803  00000+0  22806-3 0  9999
2 63395  97.6932  87.9765 0005179 333.9696  26.1266 15.00356095 72733
LEMUR-2-KRISH           
1 64561U 25135AK  26194.82305852  .00002093  00000+0  18963-3 0  9996
2 64561  97.7772 309.5216 0001441  95.6216 264.5169 14.96443451 57903
LEMUR-2-HUBBLE-4        
1 64565U 25135AP  26194.86837676  .00001055  00000+0  10517-3 0  9992
2 64565  97.7718 308.4649 0002566 165.5181 194.6112 14.93683552 57852
LEMUR-2-SEJONG-2        
1 64586U 25135BL  26194.84451666  .00002107  00000+0  18865-3 0  9997
2 64586  97.7706 309.6887 0003877 225.2170 134.8736 14.96905403 57939
LEMUR-2-HUBBLE-5        
1 64840U 25135BT  26194.27498338  .00001025  00000+0  10103-3 0  9999
2 64840  97.7739 308.5451 0004223 243.2055 116.8733 14.94210500 57809
LEMUR-2-KARENDARRELL    
1 64841U 25135BU  26194.86273313  .00004386  00000+0  35249-3 0  9990
2 64841  97.7713 311.0352 0012325 108.8027 251.4535 15.00488219 58010
LEMUR-2-LUCILLE-ROSE    
1 65403U 25135BV  26194.56942644  .00003591  00000+0  28939-3 0  9997
2 65403  97.7706 310.7769 0014681 193.9631 166.1189 15.00477141 52594
LEMUR-2-AFFIE-WAUWIE    
1 66295U 25248C   26194.40832245  .00012783  00000+0  46625-3 0  9995
2 66295  45.3884 332.8093 0008714 240.1921 119.8103 15.28200773 38604
OTTER SDM               
1 66678U 25276N   26194.18829196  .00003482  00000+0  16462-3 0  9999
2 66678  97.4209 267.2358 0004241 263.4653  96.6100 15.20042584 34368
LEMUR-2-STAS-GORBUK     
1 66686U 25276W   26194.73597465  .00003169  00000+0  15184-3 0  9992
2 66686  97.4242 267.8265 0003482 255.8012 104.2836 15.19649762 34447
LEMUR-2-TEODOR          
1 66768U 25276DG  26194.75636056  .00003400  00000+0  15498-3 0  9991
2 66768  97.4148 268.1165 0002275  88.6540 271.4956 15.21327647 34485
LEMUR-2-LAILA           
1 66776U 25276DQ  26194.72637483  .00003164  00000+0  14347-3 0  9991
2 66776  97.4170 268.2249 0002896  96.3598 263.7967 15.21553753 34486
LEMUR-2-CELIJO-SB-PK    
1 66781U 25276DW  26194.71756870  .00002937  00000+0  23899-3 0  9997
2 66781  97.5201 264.6196 0007033  68.0362 292.1608 15.00275969 26602
LEMUR-2-FINNIAN         
1 66782U 25276DX  26194.75486397  .00001614  00000+0  13230-3 0  9995
2 66782  97.5311 264.9238 0008117   7.7708 352.3641 15.00606139 23984
